ONEWEB-0387             
1 49313U 21090AL  25141.02222554  .00000077  00000+0  15843-3 0  9994
2 49313  87.9257 352.5858 0002136  80.7484 279.3890 13.20769918179369
ONEWEB-0388             
1 49314U 21090AM  25140.67685556  .00000037  00000+0  59918-4 0  9998
2 49314  87.9248  23.0093 0001846  76.8999 283.2340 13.19725072174646
ONEWEB-0389             
1 50469U 21132A   25141.14027015  .00000077  00000+0  16484-3 0  9995
2 50469  87.9061  83.9314 0002397  72.7712 287.3681 13.17647333167740
ONEWEB-0390             
1 50470U 21132B   25140.76227136  .00000058  00000+0  11550-3 0  9998
2 50470  87.9061  84.0137 0002269  86.4364 273.7026 13.17651048166402
ONEWEB-0391             
1 50471U 21132C   25140.76396053  .00000028  00000+0  39348-4 0  9997
2 50471  87.9070  84.0239 0002925  74.9726 285.1729 13.17647747166407
ONEWEB-0392             
1 50472U 21132D   25140.79433223 -.00000037  00000+0 -12728-3 0  9996
2 50472  87.9054  83.9695 0002433  74.9500 285.1901 13.17647916166442
ONEWEB-0393             
1 50473U 21132E   25140.53966164  .00000067  00000+0  13946-3 0  9998
2 50473  87.9064  84.0311 0002244  78.4906 281.6477 13.17648153166409
ONEWEB-0394             
1 50474U 21132F   25141.19574439  .00000065  00000+0  13185-3 0  9995
2 50474  87.9153  53.3432 0002027  75.0547 285.0810 13.18684495171208
